{
  "type": "FeatureCollection",
  "features": [
    {
      "type": "Feature",
      "properties": {
        "name": "Nepal",
        "name_ne": "नेपाल",
        "capital": "Kathmandu",
        "population": 30000000,
        "area_km2": 147516,
        "iso_a2": "NP",
        "iso_a3": "NPL"
      },
      "geometry": {
        "type": "Polygon",
        "coordinates": [
          [
            [80.0883, 30.4168],
            [80.4626, 30.3929],
            [81.0275, 30.1695],
            [81.5243, 30.4229],
            [82.3273, 30.1153],
            [83.3362, 29.4637],
            [83.8985, 29.3202],
            [84.2346, 28.8393],
            [85.0124, 28.6421],
            [85.8258, 28.2038],
            [86.2544, 27.9242],
            [86.9546, 27.9744],
            [88.1207, 27.8766],
            [88.1434, 27.8385],
            [88.0437, 27.4458],
            [88.1215, 26.9806],
            [88.0297, 26.4146],
            [87.2272, 26.3976],
            [86.9545, 26.6308],
            [86.4993, 26.4309],
            [86.0259, 26.6309],
            [85.2516, 26.7261],
            [84.6750, 27.0349],
            [83.3048, 27.3645],
            [81.9996, 27.9255],
            [81.0572, 28.4163],
            [80.4759, 28.6467],
            [80.0883, 28.7944],
            [80.0883, 30.4168]
          ]
        ]
      }
    }
  ]
}
